[{"OBJECT_NAME":"STARLINK-32601","OBJECT_ID":"2024-210Q","EPOCH":"2026-03-09T14:55:18.373152","MEAN_MOTION":15.2759574,"ECCENTRICITY":0.0001921,"INCLINATION":43.0004,"RA_OF_ASC_NODE":179.8611,"ARG_OF_PERICENTER":246.0648,"MEAN_ANOMALY":114.0002,"EPHEMERIS_TYPE":0,"CLASSIFICATION_TYPE":"U","NORAD_CAT_ID":61973,"ELEMENT_SET_NO":999,"REV_AT_EPOCH":7487,"BSTAR":0.0013424,"MEAN_MOTION_DOT":0.0003688,"MEAN_MOTION_DDOT":0},{"OBJECT_NAME":"NOAA 17 DEB","OBJECT_ID":"2002-032AF","EPOCH":"2026-03-09T00:24:06.552000","MEAN_MOTION":15.25501717,"ECCENTRICITY":0.00030847,"INCLINATION":98.6472,"RA_OF_ASC_NODE":92.5947,"ARG_OF_PERICENTER":165.9893,"MEAN_ANOMALY":194.1428,"EPHEMERIS_TYPE":0,"CLASSIFICATION_TYPE":"U","NORAD_CAT_ID":48614,"ELEMENT_SET_NO":999,"REV_AT_EPOCH":26420,"BSTAR":0.01090047,"MEAN_MOTION_DOT":0.00286783,"MEAN_MOTION_DDOT":0}]
